HAWK-6B                 
1 55324U 23011A   26169.49460828  .00003902  00000+0  17085-3 0  9998
2 55324  40.4999 344.4459 0002127   9.1621 350.9226 15.22943672188049
HAWK-6C                 
1 55326U 23011C   26169.49394791  .00003518  00000+0  15490-3 0  9996
2 55326  40.4990 341.2884 0003058 358.2260   1.8538 15.22939741188051
HAWK-6A                 
1 55327U 23011D   26169.49400079  .00003879  00000+0  16991-3 0  9991
2 55327  40.4998 342.9122 0002735 354.1285   5.9492 15.22941648188059
HAWK-7A                 
1 56191U 23054P   26169.68271778  .00004403  00000+0  16697-3 0  9998
2 56191  97.2696  56.9818 0004217  53.9708 306.1922 15.27373287177256
HAWK-7B                 
1 56193U 23054R   26169.68263588  .00004563  00000+0  17293-3 0  9990
2 56193  97.2721  55.2462 0003656  66.2532 293.9090 15.27371629177259
HAWK-7C                 
1 56200U 23054Y   26169.68252321  .00004424  00000+0  16774-3 0  9991
2 56200  97.2699  56.0144 0003588  57.5778 302.5808 15.27372883177254
